[{"OBJECT_NAME":"ARIRANG-5 (KOMPSAT-5)","OBJECT_ID":"2013-042A","EPOCH":"2026-03-10T00:02:57.181344","MEAN_MOTION":15.04553599,"ECCENTRICITY":0.00039005,"INCLINATION":97.62,"RA_OF_ASC_NODE":257.0804,"ARG_OF_PERICENTER":111.6826,"MEAN_ANOMALY":248.4816,"EPHEMERIS_TYPE":0,"CLASSIFICATION_TYPE":"U","NORAD_CAT_ID":39227,"ELEMENT_SET_NO":999,"REV_AT_EPOCH":68894,"BSTAR":0.00023956705,"MEAN_MOTION_DOT":3.298e-5,"MEAN_MOTION_DDOT":0},{"OBJECT_NAME":"STARLINK-5806","OBJECT_ID":"2023-042X","EPOCH":"2026-03-09T08:27:08.919648","MEAN_MOTION":15.02530884,"ECCENTRICITY":0.00010224,"INCLINATION":43.0048,"RA_OF_ASC_NODE":57.5951,"ARG_OF_PERICENTER":261.3003,"MEAN_ANOMALY":98.7723,"EPHEMERIS_TYPE":0,"CLASSIFICATION_TYPE":"U","NORAD_CAT_ID":56007,"ELEMENT_SET_NO":999,"REV_AT_EPOCH":16286,"BSTAR":-1.168786e-5,"MEAN_MOTION_DOT":-3.61e-6,"MEAN_MOTION_DDOT":0}]
